NORAD_CAT_ID,OBJECT_NAME,OBJECT_TYPE,EPOCH,MEAN_MOTION,ECCENTRICITY,INCLINATION,RA_OF_ASC_NODE,ARG_OF_PERICENTER,MEAN_ANOMALY,BSTAR,MEAN_MOTION_DOT,MEAN_MOTION_DDOT,TLE_LINE0,TLE_LINE1,TLE_LINE2,SEMIMAJOR_AXIS,PERIOD,APOGEE,PERIGEE,DECAYED
55631.0,STARLINK-5558,PAYLOAD,2024-07-08 17:25:58,14.98337038,0.0003049,70.0005,299.7777,271.5688,88.5121,0.00010171,1.121e-05,0.0,0 STARLINK-5558,1 55631U 23021D   24190.72636910  .00001121  00000-0  10171-3 0  9996,2 55631  70.0005 299.7777 0003049 271.5688  88.5121 14.98337038 77088,6950.171,96.107,574.155,569.917,0.0
55631.0,STARLINK-5558,PAYLOAD,2024-07-09 12:39:35,14.98328324,0.0003005,70.0006,297.7579,271.7464,88.335,3.0365e-07,-8.9e-07,0.0,0 STARLINK-5558,1 55631U 23021D   24191.52749652 -.00000089  00000-0  30365-6 0  9996,2 55631  70.0006 297.7579 0003005 271.7464  88.3350 14.98328324 76903,6950.198,96.107,574.152,569.975,0.0
55631.0,STARLINK-5558,PAYLOAD,2024-07-09 14:15:43,14.98331215,0.0002967,70.0007,297.5906,266.8948,93.1871,8.04e-06,3e-08,0.0,0 STARLINK-5558,1 55631U 23021D   24191.59425376  .00000003  00000-0  80400-5 0  9996,2 55631  70.0007 297.5906 0002967 266.8948  93.1871 14.98331215 77214,6950.189,96.107,574.116,569.992,0.0
55631.0,STARLINK-5558,PAYLOAD,2024-07-09 17:27:59,14.98332039,0.0002906,70.0008,297.2543,264.8399,95.2428,9.9589e-06,2.6e-07,0.0,0 STARLINK-5558,1 55631U 23021D   24191.72777323  .00000026  00000-0  99589-5 0  9996,2 55631  70.0008 297.2543 0002906 264.8399  95.2428 14.98332039 77238,6950.187,96.107,574.071,570.032,0.0
55631.0,STARLINK-5558,PAYLOAD,2024-07-09 23:52:32,14.98314982,0.0002731,70.0014,296.5811,253.7433,106.3426,0.00013585,1.528e-05,0.0,0 STARLINK-5558,1 55631U 23021D   24191.99482162  .00001528  00000-0  13585-3 0  9997,2 55631  70.0014 296.5811 0002731 253.7433 106.3426 14.98314982 76976,6950.239,96.108,574.002,570.206,0.0
55631.0,STARLINK-5558,PAYLOAD,2024-07-10 11:05:28,14.98327296,0.0002963,70.0009,295.4023,269.557,90.525,-6.1968e-05,-8.32e-06,0.0,0 STARLINK-5558,1 55631U 23021D   24192.46213852 -.00000832  00000-0 -61968-4 0  9996,2 55631  70.0009 295.4023 0002963 269.5570  90.5250 14.98327296 77047,6950.201,96.107,574.126,570.007,0.0
55631.0,STARLINK-5558,PAYLOAD,2024-07-10 17:30:00,14.98327939,0.0002874,70.001,294.7294,265.587,94.496,-4.3776e-05,-6.15e-06,0.0,0 STARLINK-5558,1 55631U 23021D   24192.72917776 -.00000615  00000-0 -43776-4 0  9997,2 55631  70.0010 294.7294 0002874 265.5870  94.4960 14.98327939 77383,6950.199,96.107,574.062,570.067,0.0
55631.0,STARLINK-5558,PAYLOAD,2024-07-11 14:19:45,14.98331422,0.0002949,70.0007,292.5411,265.7172,94.365,3.7959e-05,3.6e-06,0.0,0 STARLINK-5558,1 55631U 23021D   24193.59705299  .00000360  00000-0  37959-4 0  9999,2 55631  70.0007 292.5411 0002949 265.7172  94.3650 14.98331422 77518,6950.188,96.107,574.103,570.004,0.0
55631.0,STARLINK-5558,PAYLOAD,2024-07-12 14:21:46,14.98329685,0.000307,70.0004,290.0165,268.072,92.0088,3.6715e-05,3.45e-06,0.0,0 STARLINK-5558,1 55631U 23021D   24194.59845365  .00000345  00000-0  36715-4 0  9991,2 55631  70.0004 290.0165 0003070 268.0720  92.0088 14.98329685 77669,6950.194,96.107,574.193,569.925,0.0
55631.0,STARLINK-5558,PAYLOAD,2024-07-12 15:57:54,14.98330163,0.0003068,70.0005,289.8482,268.1604,91.9203,4.0924e-05,3.95e-06,0.0,0 STARLINK-5558,1 55631U 23021D   24194.66521322  .00000395  00000-0  40924-4 0  9995,2 55631  70.0005 289.8482 0003068 268.1604  91.9203 14.98330163 77375,6950.192,96.107,574.19,569.925,0.0
55631.0,STARLINK-5558,PAYLOAD,2024-07-13 14:23:47,14.98331885,0.0003177,70.0003,287.4919,269.2561,90.8234,2.8767e-06,-5.9e-07,0.0,0 STARLINK-5558,1 55631U 23021D   24195.59985229 -.00000059  00000-0  28767-5 0  9998,2 55631  70.0003 287.4919 0003177 269.2561  90.8234 14.98331885 77810,6950.187,96.107,574.26,569.844,0.0
55631.0,STARLINK-5558,PAYLOAD,2024-07-13 15:59:55,14.98333718,0.0003179,70.0002,287.3233,269.5617,90.5178,1.7421e-06,-7.2e-07,0.0,0 STARLINK-5558,1 55631U 23021D   24195.66661108 -.00000072  00000-0  17421-5 0  9993,2 55631  70.0002 287.3233 0003179 269.5617  90.5178 14.98333718 77523,6950.181,96.107,574.256,569.837,0.0
55631.0,STARLINK-5558,PAYLOAD,2024-07-14 14:25:47,14.98334979,0.0003233,69.9998,284.9654,268.7662,91.3126,7.0617e-05,7.5e-06,0.0,0 STARLINK-5558,1 55631U 23021D   24196.60124718  .00000750  00000-0  70617-4 0  9996,2 55631  69.9998 284.9654 0003233 268.7662  91.3126 14.98334979 77966,6950.177,96.107,574.289,569.796,0.0
55631.0,STARLINK-5558,PAYLOAD,2024-07-14 16:01:55,14.98336279,0.0003194,69.9999,284.7971,268.2587,91.8206,8.7572e-05,9.52e-06,0.0,0 STARLINK-5558,1 55631U 23021D   24196.66800574  .00000952  00000-0  87572-4 0  9995,2 55631  69.9999 284.7971 0003194 268.2587  91.8206 14.98336279 77671,6950.173,96.107,574.258,569.819,0.0
55631.0,STARLINK-5558,PAYLOAD,2024-07-15 12:51:40,14.98330241,0.0003048,70.0003,282.6089,269.3754,90.7055,4.4564e-05,4.39e-06,0.0,0 STARLINK-5558,1 55631U 23021D   24197.53588997  .00000439  00000-0  44564-4 0  9998,2 55631  70.0003 282.6089 0003048 269.3754  90.7055 14.98330241 77801,6950.192,96.107,574.176,569.939,0.0
55631.0,STARLINK-5558,PAYLOAD,2024-07-15 14:27:48,14.98329858,0.0003044,70.0003,282.4407,269.392,90.689,3.9867e-05,3.83e-06,0.0,0 STARLINK-5558,1 55631U 23021D   24197.60265034  .00000383  00000-0  39867-4 0  9998,2 55631  70.0003 282.4407 0003044 269.3920  90.6890 14.98329858 78117,6950.193,96.107,574.174,569.943,0.0
55631.0,STARLINK-5558,PAYLOAD,2024-07-15 22:28:29,14.98334615,0.0003064,70.0006,281.6,268.9914,91.0893,-0.00017279,-2.154e-05,0.0,0 STARLINK-5558,1 55631U 23021D   24197.93645200 -.00002154  00000-0 -17279-3 0  9993,2 55631  70.0006 281.6000 0003064 268.9914  91.0893 14.98334615 78160,6950.179,96.107,574.173,569.914,0.0
55631.0,STARLINK-5558,PAYLOAD,2024-07-16 12:53:42,14.98328182,0.000301,70.0004,280.0849,269.7699,90.3115,7.0261e-07,-8.5e-07,0.0,0 STARLINK-5558,1 55631U 23021D   24198.53729261 -.00000085  00000-0  70261-6 0  9993,2 55631  70.0004 280.0849 0003010 269.7699  90.3115 14.98328182 77959,6950.199,96.107,574.156,569.972,0.0
55631.0,STARLINK-5558,PAYLOAD,2024-07-16 14:29:49,14.98330432,0.0002995,70.0004,279.9166,269.7281,90.3535,1.1892e-05,4.9e-07,0.0,0 STARLINK-5558,1 55631U 23021D   24198.60405084  .00000049  00000-0  11892-4 0  9997,2 55631  70.0004 279.9166 0002995 269.7281  90.3535 14.98330432 78268,6950.192,96.107,574.138,569.975,0.0
55631.0,STARLINK-5558,PAYLOAD,2024-07-17 12:55:43,14.98324521,0.000299,70.0001,277.56,269.3594,90.7222,-5.3482e-05,-7.31e-06,0.0,0 STARLINK-5558,1 55631U 23021D   24199.53869847 -.00000731  00000-0 -53482-4 0  9992,2 55631  70.0001 277.5600 0002990 269.3594  90.7222 14.98324521 78102,6950.21,96.107,574.153,569.997,0.0
55631.0,STARLINK-5558,PAYLOAD,2024-07-17 14:31:51,14.98325682,0.0002983,70.0001,277.3916,269.9469,90.1349,-3.8865e-05,-5.57e-06,0.0,0 STARLINK-5558,1 55631U 23021D   24199.60545758 -.00000557  00000-0 -38865-4 0  9996,2 55631  70.0001 277.3916 0002983 269.9469  90.1349 14.98325682 78416,6950.206,96.107,574.144,569.998,0.0
55631.0,STARLINK-5558,PAYLOAD,2024-07-17 22:32:31,14.98333884,0.0003061,70.0001,276.5502,269.7347,90.3462,-7.157e-05,-9.47e-06,0.0,0 STARLINK-5558,1 55631U 23021D   24199.93925327 -.00000947  00000-0 -71570-4 0  9999,2 55631  70.0001 276.5502 0003061 269.7347  90.3462 14.98333884 78465,6950.181,96.107,574.173,569.918,0.0
55631.0,STARLINK-5558,PAYLOAD,2024-07-18 12:57:43,14.9833349,0.0003098,69.9996,275.0346,268.9515,91.1289,6.3274e-05,6.62e-06,0.0,0 STARLINK-5558,1 55631U 23021D   24200.54009039  .00000662  00000-0  63274-4 0  9996,2 55631  69.9996 275.0346 0003098 268.9515  91.1289 14.98333490 78259,6950.182,96.107,574.2,569.894,0.0
55631.0,STARLINK-5558,PAYLOAD,2024-07-18 14:33:51,14.98334499,0.0003089,69.9996,274.8664,269.2233,90.8572,7.4562e-05,7.97e-06,0.0,0 STARLINK-5558,1 55631U 23021D   24200.60684935  .00000797  00000-0  74562-4 0  9998,2 55631  69.9996 274.8664 0003089 269.2233  90.8572 14.98334499 78565,6950.179,96.107,574.191,569.897,0.0
55631.0,STARLINK-5558,PAYLOAD,2024-07-19 12:59:44,14.98322755,0.000314,69.9996,272.5103,269.9784,90.1015,0.00020714,2.379e-05,0.0,0 STARLINK-5558,1 55631U 23021D   24201.54149277  .00002379  00000-0  20714-3 0  9994,2 55631  69.9996 272.5103 0003140 269.9784  90.1015 14.98322755 78404,6950.215,96.107,574.263,569.898,0.0
55631.0,STARLINK-5558,PAYLOAD,2024-07-19 14:35:52,14.98329715,0.0003169,69.9996,272.3423,270.9862,89.0934,0.00012531,1.402e-05,0.0,0 STARLINK-5558,1 55631U 23021D   24201.60825052  .00001402  00000-0  12531-3 0  9997,2 55631  69.9996 272.3423 0003169 270.9862  89.0934 14.98329715 78711,6950.194,96.107,574.261,569.856,0.0
55631.0,STARLINK-5558,PAYLOAD,2024-07-19 22:36:33,14.98329142,0.0003204,69.9996,271.4988,272.4599,87.6193,-6.3154e-06,-1.68e-06,0.0,0 STARLINK-5558,1 55631U 23021D   24201.94205389 -.00000168  00000-0 -63154-5 0  9998,2 55631  69.9996 271.4988 0003204 272.4599  87.6193 14.98329142 78761,6950.196,96.107,574.287,569.834,0.0
55631.0,STARLINK-5558,PAYLOAD,2024-07-20 13:01:45,14.9833473,0.0003157,69.9994,269.9839,270.8281,89.2516,-4.0501e-06,-1.41e-06,0.0,0 STARLINK-5558,1 55631U 23021D   24202.54289022 -.00000141  00000-0 -40501-5 0  9993,2 55631  69.9994 269.9839 0003157 270.8281  89.2516 14.98334730 78556,6950.178,96.107,574.237,569.849,0.0
55631.0,STARLINK-5558,PAYLOAD,2024-07-20 14:37:53,14.98334971,0.0003178,69.9996,269.8157,270.3188,89.7607,2.1921e-05,1.69e-06,0.0,0 STARLINK-5558,1 55631U 23021D   24202.60964915  .00000169  00000-0  21921-4 0  9993,2 55631  69.9996 269.8157 0003178 270.3188  89.7607 14.98334971 78861,6950.178,96.107,574.251,569.834,0.0
55631.0,STARLINK-5558,PAYLOAD,2024-07-21 05:03:06,14.98328074,0.0003151,69.9994,268.3006,273.283,86.7969,-4.2151e-05,-5.96e-06,0.0,0 STARLINK-5558,1 55631U 23021D   24203.21049473 -.00000596  00000-0 -42151-4 0  9998,2 55631  69.9994 268.3006 0003151 273.2830  86.7969 14.98328074 78655,6950.199,96.107,574.254,569.874,0.0
